[{"OBJECT_NAME":"CORVUS BC4","OBJECT_ID":"2018-099K","EPOCH":"2026-03-09T15:49:18.108768","MEAN_MOTION":15.1161571,"ECCENTRICITY":0.00080458,"INCLINATION":97.4206,"RA_OF_ASC_NODE":114.5457,"ARG_OF_PERICENTER":356.5821,"MEAN_ANOMALY":3.5354,"EPHEMERIS_TYPE":0,"CLASSIFICATION_TYPE":"U","NORAD_CAT_ID":43767,"ELEMENT_SET_NO":999,"REV_AT_EPOCH":39736,"BSTAR":0.00033979895,"MEAN_MOTION_DOT":5.714e-5,"MEAN_MOTION_DDOT":0},{"OBJECT_NAME":"STARLINK-5166","OBJECT_ID":"2022-136AL","EPOCH":"2026-03-09T21:20:14.836704","MEAN_MOTION":15.08860719,"ECCENTRICITY":0.00012071,"INCLINATION":53.2185,"RA_OF_ASC_NODE":333.2592,"ARG_OF_PERICENTER":90.1268,"MEAN_ANOMALY":269.9862,"EPHEMERIS_TYPE":0,"CLASSIFICATION_TYPE":"U","NORAD_CAT_ID":54085,"ELEMENT_SET_NO":999,"REV_AT_EPOCH":18701,"BSTAR":-0.00022636911,"MEAN_MOTION_DOT":-3.891e-5,"MEAN_MOTION_DDOT":0}]
